From: horizons@ssd.jpl.nasa.gov (Horizons Ephemeris System)
Subject: [Horizons] SMALL BODY #C(V30@399)_T(Christensen (C/2013 K1)) (1/1)
Date: February 8, 2021 at 4:50:17 PM PST

Automated mail xmit by MAIL_REQUEST, PID= 12314 Mon Feb  8 16:50:17 2021
++++++++++++++++++++++++++++++++ (part 1 of 1)  +++++++++++++++++++++++++++++++
*******************************************************************************
JPL/HORIZONS               Christensen (C/2013 K1)         2021-Feb-08 16:50:17
Rec #:90004096 (+COV) Soln.date: 2014-Jun-13_19:45:09       # obs: 52 (50 days)

IAU76/J2000 helio. ecliptic osc. elements (au, days, deg., period=Julian yrs):

 EPOCH=  2456443.5 ! 2013-May-31.0000000 (TDB)    RMSW= n.a.
  EC= .98811352661362     QR= .948262885210469    TP= 2456442.666498729
  OM= 125.9086667795432   W= 171.3325630162575    IN= 42.34151992521438
  A= 79.77663806466121    MA= .001152913553497714 ADIST= 158.6050132441119
  PER= 712.5606080863701  N= .001383217           ANGMOM= .023619267
  DAN= 81.36259           DDN= .95368             L= 299.4799819
  B= 5.8257267            MOID= .0614259          TP= 2013-May-30.1664987290

Comet physical (GM= km^3/s^2; RAD= km):
  GM= n.a.                RAD= n.a.
  M1=  18.4     M2=  n.a.     k1=  9.     k2= n.a.     PHCOF= n.a.

COMET comments 
1: soln ref.= JPL#11, data arc: 2013-05-18 to 2013-07-07
2: k1=9.;
*******************************************************************************


*******************************************************************************
Ephemeris / MAIL_REQUEST Mon Feb  8 16:50:17 2021 Pasadena, USA  / Horizons
*******************************************************************************
Target body name: Christensen (C/2013 K1)         {source: JPL#11}
Center body name: Earth (399)                     {source: DE431}
Center-site name: Heaven on Earth Observatory, Mayhill
*******************************************************************************
Start time      : A.D. 1990-Jan-01 00:00:00.0000 TDB
Stop  time      : A.D. 2020-Dec-31 00:00:00.0000 TDB
Step-size       : 120 steps
*******************************************************************************
Center geodetic : 254.471000,32.9035384,2.2360688 {E-lon(deg),Lat(deg),Alt(km)}
Center cylindric: 254.471000,5362.17112,3446.1964 {E-lon(deg),Dxy(km),Dz(km)}
Center pole/equ : High-precision EOP model        {East-longitude positive}
Center radii    : 6378.1 x 6378.1 x 6356.8 km     {Equator, meridian, pole}    
Small perturbers: Yes                             {source: SB431-N16}
Output units    : AU-D
Output type     : GEOMETRIC cartesian states
Output format   : 6 (LT, range, and range-rate)
EOP file        : eop.210208.p210502
EOP coverage    : DATA-BASED 1962-JAN-20 TO 2021-FEB-08. PREDICTS-> 2021-MAY-01
Reference frame : Ecliptic of J2000.0
*******************************************************************************
Initial IAU76/J2000 heliocentric ecliptic osculating elements (au, days, deg.):
 EPOCH=  2456443.5 ! 2013-May-31.0000000 (TDB)    RMSW= n.a.                  
  EC= .98811352661362     QR= .948262885210469    TP= 2456442.666498729       
  OM= 125.9086667795432   W= 171.3325630162575    IN= 42.34151992521438       
 Equivalent ICRF heliocentric equatorial cartesian coordinates (au, au/d):
  X= 4.783137794932408E-01  Y=-7.803147373021785E-01  Z=-2.484784720056848E-01
 VX= 1.680652523159309E-02 VY= 1.382869118810095E-02 VZ=-1.210944727842292E-02
Comet physical (GM= km^3/s^2; RAD= km):                                        
  GM= n.a.                RAD= n.a.                                           
  M1=  18.4     M2=  n.a.     k1=  9.     k2= n.a.     PHCOF= n.a.            
*******************************************************************************
           JDTDB,            Calendar Date (TDB),                     LT,                     RG,                     RR,
**************************************************************************************************************************
$$SOE
2452421.300000000, A.D. 2002-May-26 19:12:00.0000,  1.518814096375387E-01,  2.629745088173747E+01,  1.107192986751583E-02,
2452515.650000000, A.D. 2002-Aug-29 03:36:00.0000,  1.527951113056472E-01,  2.645565342143595E+01, -1.021228526625083E-02,
2452610.000000000, A.D. 2002-Dec-01 12:00:00.0000,  1.427982515879240E-01,  2.472475081771486E+01, -2.025346121207509E-02,
2452704.350000000, A.D. 2003-Mar-05 20:24:00.0000,  1.377508401051710E-01,  2.385081861057785E+01,  4.086813860608717E-03,
2452798.700000000, A.D. 2003-Jun-08 04:48:00.0000,  1.433791101578820E-01,  2.482532336144592E+01,  9.736644873844178E-03,
2452893.050000000, A.D. 2003-Sep-10 13:12:00.0000,  1.427087778492541E-01,  2.470925892009887E+01, -1.353441165431924E-02,
2452987.400000000, A.D. 2003-Dec-13 21:36:00.0000,  1.321238941756638E-01,  2.287654312453551E+01, -1.869149528366848E-02,
2453081.750000000, A.D. 2004-Mar-17 06:00:00.0000,  1.286477384383320E-01,  2.227466541627674E+01,  6.911898262297657E-03,
2453176.100000000, A.D. 2004-Jun-19 14:24:00.0000,  1.343551393988130E-01,  2.326287125910383E+01,  7.135943554846058E-03,
2453270.450000000, A.D. 2004-Sep-21 22:48:00.0000,  1.320470497167600E-01,  2.286323791892556E+01, -1.587613360524562E-02,
2453364.800000000, A.D. 2004-Dec-25 07:12:00.0000,  1.211717062005994E-01,  2.098023056061376E+01, -1.686241156971497E-02,
2453459.150000000, A.D. 2005-Mar-29 15:36:00.0000,  1.192768744244138E-01,  2.065215060874661E+01,  8.894246225651331E-03,
2453553.500000000, A.D. 2005-Jul-02 00:00:00.0000,  1.247254616030114E-01,  2.159554423437848E+01,  4.805288665198667E-03,
2453647.850000000, A.D. 2005-Oct-04 08:24:00.0000,  1.207809579317811E-01,  2.091257459514111E+01, -1.860993247058483E-02,
2453742.200000000, A.D. 2006-Jan-06 16:48:00.0000,  1.099160795440071E-01,  1.903137921763969E+01, -1.400821031399268E-02,
2453836.550000000, A.D. 2006-Apr-11 01:12:00.0000,  1.095250908445030E-01,  1.896368162288428E+01,  1.016406771533348E-02,
2453930.900000000, A.D. 2006-Jul-14 09:36:00.0000,  1.143986117503342E-01,  1.980750560995466E+01,  1.742049811759866E-03,
2454025.250000000, A.D. 2006-Oct-16 18:00:00.0000,  1.088697429224817E-01,  1.885021164765207E+01, -2.015994041565293E-02,
2454119.600000000, A.D. 2007-Jan-19 02:24:00.0000,  9.829854820583039E-02,  1.701986602150961E+01, -1.160182924723363E-02,
2454213.950000000, A.D. 2007-Apr-23 10:48:00.0000,  9.925238523794043E-02,  1.718501778406539E+01,  1.110064226327253E-02,
2454308.300000000, A.D. 2007-Jul-26 19:12:00.0000,  1.032629346591233E-01,  1.787942289041798E+01, -1.396059535498508E-03,
2454402.650000000, A.D. 2007-Oct-29 03:36:00.0000,  9.625228610497444E-02,  1.666556672170169E+01, -2.175005477721016E-02,
2454497.000000000, A.D. 2008-Jan-31 12:00:00.0000,  8.621665036974546E-02,  1.492795025867299E+01, -8.308981811041630E-03,
2454591.350000000, A.D. 2008-May-04 20:24:00.0000,  8.827494797443076E-02,  1.528433344137049E+01,  1.067662182556978E-02,
2454685.700000000, A.D. 2008-Aug-07 04:48:00.0000,  9.117758361019271E-02,  1.578690922231165E+01, -4.353744415760320E-03,
2454780.050000000, A.D. 2008-Nov-09 13:12:00.0000,  8.282598030147949E-02,  1.434087393518353E+01, -2.265383132692347E-02,
2454874.400000000, A.D. 2009-Feb-11 21:36:00.0000,  7.349823527944074E-02,  1.272582494966366E+01, -5.767855016029808E-03,
2454968.750000000, A.D. 2009-May-17 06:00:00.0000,  7.634095225570167E-02,  1.321802613631519E+01,  1.025506418450087E-02,
2455063.100000000, A.D. 2009-Aug-19 14:24:00.0000,  7.793717418270504E-02,  1.349440339553275E+01, -7.787023358710971E-03,
2455157.450000000, A.D. 2009-Nov-21 22:48:00.0000,  6.841877028019334E-02,  1.184634284818731E+01, -2.299698123070870E-02,
2455251.800000000, A.D. 2010-Feb-24 07:12:00.0000,  5.984935255912826E-02,  1.036259416464137E+01, -3.247516234946518E-03,
2455346.150000000, A.D. 2010-May-29 15:36:00.0000,  6.306548357391650E-02,  1.091944998782911E+01,  8.376882543050438E-03,
2455440.500000000, A.D. 2010-Sep-01 00:00:00.0000,  6.321187968628914E-02,  1.094479768893081E+01, -1.029175582968358E-02,
2455534.850000000, A.D. 2010-Dec-04 08:24:00.0000,  5.272144444816221E-02,  9.128435133032413E+00, -2.357829516104392E-02,
2455629.200000000, A.D. 2011-Mar-08 16:48:00.0000,  4.473892191414908E-02,  7.746304201066866E+00, -1.697307010627244E-03,
2455723.550000000, A.D. 2011-Jun-11 01:12:00.0000,  4.775062924672014E-02,  8.267765160887198E+00,  6.229344660549648E-03,
2455817.900000000, A.D. 2011-Sep-13 09:36:00.0000,  4.636878547008651E-02,  8.028506327768781E+00, -1.305639490479342E-02,
2455912.250000000, A.D. 2011-Dec-16 18:00:00.0000,  3.516685217243508E-02,  6.088951701705583E+00, -2.355684254379905E-02,
2456006.600000000, A.D. 2012-Mar-20 02:24:00.0000,  2.702954757048514E-02,  4.680021085442555E+00, -2.728605972304842E-03,
2456100.950000000, A.D. 2012-Jun-22 10:48:00.0000,  2.866715311511166E-02,  4.963563695932214E+00,  2.375514170566730E-03,
2456195.300000000, A.D. 2012-Sep-24 19:12:00.0000,  2.576314197867778E-02,  4.460749754432466E+00, -1.355961911662404E-02,
2456289.650000000, A.D. 2012-Dec-28 03:36:00.0000,  1.554492428157894E-02,  2.691520204682865E+00, -2.080236978814496E-02,
2456384.000000000, A.D. 2013-Apr-01 12:00:00.0000,  6.703654721564607E-03,  1.160701834340241E+00, -1.014868758695687E-02,
2456478.350000000, A.D. 2013-Jul-04 20:24:00.0000,  6.014584767563320E-03,  1.041393070267832E+00,  8.294322367059105E-03,
2456572.700000000, A.D. 2013-Oct-07 04:48:00.0000,  9.959922412643077E-03,  1.724507107601020E+00,  6.885698948844245E-03,
2456667.050000000, A.D. 2014-Jan-09 13:12:00.0000,  1.723460758059008E-02,  2.984079798825948E+00,  2.025937388680673E-02,
2456761.400000000, A.D. 2014-Apr-13 21:36:00.0000,  2.870630316659876E-02,  4.970342317216125E+00,  1.820676075437977E-02,
2456855.750000000, A.D. 2014-Jul-17 06:00:00.0000,  3.447535414898762E-02,  5.969222530440810E+00,  2.198161290604505E-03,
